[{"OBJECT_NAME":"TRANSPORTER-15 OBJECT DD","OBJECT_ID":"2025-276DD","EPOCH":"2026-03-09T18:14:00.417120","MEAN_MOTION":15.21415717,"ECCENTRICITY":0.00010897,"INCLINATION":97.4276,"RA_OF_ASC_NODE":144.305,"ARG_OF_PERICENTER":138.099,"MEAN_ANOMALY":222.0329,"EPHEMERIS_TYPE":0,"CLASSIFICATION_TYPE":"U","NORAD_CAT_ID":66765,"ELEMENT_SET_NO":999,"REV_AT_EPOCH":1534,"BSTAR":0.00044710703,"MEAN_MOTION_DOT":9.972e-5,"MEAN_MOTION_DDOT":0},{"OBJECT_NAME":"ASAP-S","OBJECT_ID":"2011-076G","EPOCH":"2026-03-09T17:04:01.263936","MEAN_MOTION":15.2280587,"ECCENTRICITY":0.00082377,"INCLINATION":98.0168,"RA_OF_ASC_NODE":352.0786,"ARG_OF_PERICENTER":129.3662,"MEAN_ANOMALY":230.8304,"EPHEMERIS_TYPE":0,"CLASSIFICATION_TYPE":"U","NORAD_CAT_ID":38013,"ELEMENT_SET_NO":999,"REV_AT_EPOCH":77768,"BSTAR":0.00058516402,"MEAN_MOTION_DOT":0.00013629,"MEAN_MOTION_DDOT":0}]
